    CK22W020  2023 03  8.7411  3.124830  0.990884  123.3142  320.4367   63.5025  20250611  11.5  4.0  C/2022 W2 (ATLAS)                                        MPEC 2024-EF7
    CK22W030  2023 06 22.8214  1.396917  0.994975  116.5128  132.3026  103.5811  20250611  13.0  4.0  C/2022 W3 (Leonard)                                      MPEC 2024-C04
    CK22Y010  2022 11 27.6772  2.960481  0.765306  174.8802  285.8771   18.8558  20250611   9.0  4.0  C/2022 Y1 (Hogan)                                        MPEC 2023-M14
    CK22Y020  2023 03 22.4221  2.542076  0.871125  105.4748  216.3708  165.8913  20250611  13.5  4.0  C/2022 Y2 (Lemmon)                                       MPEC 2023-TM6
    CK23A010  2023 03 18.5903  1.836039  0.991702  159.2633  318.2667   94.7413  20250611  14.5  4.0  C/2023 A1 (Leonard)                                      MPEC 2024-GJ3
    CK23A020  2023 01 20.3645  0.945053  0.997680  142.4950   94.5083   94.7063  20250611  13.5  4.0  C/2023 A2 (SWAN)                                         MPEC 2023-J95
    CK23A030  2024 09 27.7433  0.391507  1.000120  308.5075   21.5734  139.1112  20250611   6.5  3.2  C/2023 A3 (Tsuchinshan-ATLAS)                            MPC184410
    PK23B010  2023 05  3.7774  6.140634  0.130933   81.7085   78.5601   14.5884  20250611   5.5  4.0  P/2023 B1 (PANSTARRS)                                    MPEC 2024-F34
    CK23B020  2023 03 10.6044  1.740664  0.997082  317.3632  218.0909   40.7668  20250611  14.5  4.0  C/2023 B2 (ATLAS)                                        MPEC 2023-XP6
    PK23B030  2020 09  5.9274  3.993466  0.122376  240.3785  153.9860    9.1566  20250611  10.5  4.0  P/2023 B3 (PANSTARRS)                                    MPEC 2023-F81
    CK23C020  2024 11 16.7862  2.368522  0.999024  357.4472  301.0046   48.3217  20250611   7.0  4.0  C/2023 C2 (ATLAS)                                        MPC184410
    CK23E010  2023 06 30.8652  1.027502  0.946635  105.9505  164.5187   38.2812  20250611  15.5  4.0  C/2023 E1 (ATLAS)                                        MPEC 2024-D33
    CK23F010  2023 06 28.0981  1.710214  0.993036  216.7328   25.3074  131.6942  20250611  16.0  4.0  C/2023 F1 (PANSTARRS)                                    MPEC 2023-N01
    CK23F030  2025 02  2.6252  5.190782  1.003414  265.5326  109.4654  145.9636  20250611   6.0  4.0  C/2023 F3 (ATLAS)                                        MPC184410
    CK23H010  2024 11 28.6393  4.447593  0.994144  333.7519  292.6467   21.7827  20250611   8.5  4.0  C/2023 H1 (PANSTARRS)                                    MPC184410
    CK23H020  2023 10 29.1600  0.895256  0.996380  150.6867  217.0720  113.7477  20250611  14.0  4.0  C/2023 H2 (Lemmon)                                       MPEC 2024-GJ3
    CK23H030  2024 02 18.3635  5.231845  0.615753  193.2677   55.0902    2.4889  20250611  10.0  4.0  C/2023 H3 (PANSTARRS)                                    MPEC 2023-R20
    AK23H040  2023 08  8.7054  2.124090  0.985055   65.0178  230.8265   76.5690  20250611  18.0  2.0  A/2023 H4                                                MPEC 2023-SQ0
    CK23H050  2025 06 30.2776  4.312580  1.000464   60.0995  159.4784   97.8554  20250611   7.0  4.0  C/2023 H5 (Lemmon)                                       MPC184410
    PK23J16N  2024 12 30.7754  2.299776  0.146936  353.2068   11.8725    3.7022  20250611  14.0  4.0  P/2023 JN16 (Lemmon)                                     MPEC 2024-UA9
    CK23K010  2023 09  7.5780  2.038748  0.996731  337.4195  223.6981  137.9976  20250611  13.0  4.0  C/2023 K1 (ATLAS)                                        MPEC 2024-GJ3
    PK23M010  2023 12 14.3260  2.826682  0.586820   79.6995  216.8598   12.2889  20250611  13.5  4.0  P/2023 M1 (PANSTARRS)                                    MPEC 2023-N01
    PK23M020  2023 07 27.5353  3.515735  0.370003  243.4765   83.2502   19.7273  20250611  12.5  4.0  P/2023 M2 (PANSTARRS)                                    MPEC 2024-TD8
    PK23M040  2022 04 13.6616  3.927265  0.278931  320.5209  296.2839    7.5919  20250611   7.5  4.0  P/2023 M4 (ATLAS)                                        MPEC 2024-TP3
    CK23P010  2023 09 17.6205  0.224420  0.996023  116.2522   66.8312  132.4779  20250611  10.0  4.0  C/2023 P1 (Nishimura)                                    MPEC 2024-MB8
    CK23Q010  2024 12  1.1271  2.575801  1.004985   84.4181    7.1241   36.6448  20250611  10.0  4.0  C/2023 Q1 (PANSTARRS)                                    MPC184410
    CK23Q020  2024 06 23.9479  3.209114  0.990687  171.6915   92.6797  104.0618  20250611  11.5  4.0  C/2023 Q2 (PANSTARRS)                                    MPEC 2024-N80
    CK23R010  2026 04 13.4833  3.569821  1.002204  144.2737   62.5624  149.3169  20250611   6.0  4.0  C/2023 R1 (PANSTARRS)                                    MPC184410
    CK23R020  2024 08 12.1591  0.905098  1.000282  337.3131  188.8996   30.6893  20250611  10.5  4.0  C/2023 R2 (PANSTARRS)                                    MPEC 2024-L77
    AK23R030  2023 12 18.1803  1.358662  0.998107   86.9422  347.3413   12.0808  20250611  20.0  2.0  A/2023 R3                                                MPEC 2023-UR6
    CK23R03N  2023 01 20.5115  5.180403  0.490595  130.6088  207.0644   10.3516  20250611   7.5  4.0  C/2023 RN3 (ATLAS)                                       MPEC 2024-YC7
    CK23R61S  2028 12  1.1249  7.998240  0.327821  119.4059  347.0201   19.9446  20250611   6.8  4.0  C/2023 RS61                                              MPC184411
    PK23S010  2025 02 24.1752  2.619712  0.318472  180.3058  317.2904    9.1578  20250611  11.5  4.0  P/2023 S1 (PANSTARRS)                                    MPC184411
    CK23S020  2023 10 15.3789  1.061453  0.993628   78.9426  229.4733   19.6616  20250611  15.0  4.0  C/2023 S2 (ATLAS)                                        MPEC 2023-XP6
    CK23S030  2024 01 19.6483  0.829334  0.970827  281.5335  233.8236  140.4935  20250611  16.0  4.0  C/2023 S3 (Lemmon)                                       MPEC 2024-P23
    PK23T010  2024 05 22.8561  2.817615  0.333226  202.8628  249.5765    6.6123  20250611  14.0  4.0  P/2023 T1 (PANSTARRS)                                    MPEC 2024-BE0
    CK23T020  2023 12 22.7495  1.996252  0.991090  111.2152  317.5273   48.5912  20250611  14.5  4.0  C/2023 T2 (Borisov)                                      MPEC 2024-GJ3
    CK23T030  2025 01 25.3527  3.548327  0.995852  302.8474  246.0019   27.2214  20250611   8.5  4.0  C/2023 T3 (Fuls)                                         MPC184411
    CK23T22D  2024 09 16.3014  2.356696  0.951271   32.5409    5.5638  170.4899  20250611  12.5  4.0  C/2023 TD22 (Lemmon)                                     MPEC 2024-VB7
    CK23U010  2024 10 12.9184  4.973078  0.998079  255.6441  305.8042  108.1459  20250611   8.0  4.0  C/2023 U1 (Fuls)                                         MPC184411
    CK23V010  2025 07 13.0446  5.092567  1.000371  103.3152   15.0420  102.0138  20250611   8.5  4.0  C/2023 V1 (Lemmon)                                       MPC184411
    PK23V020  2024 02  3.6780  3.104149  0.570069  330.5186   95.4745    9.8884  20250611  13.5  4.0  P/2023 V2 (PANSTARRS)                                    MPC184411
    CK23V030  2023 08  4.0470  4.488453  0.651552  291.8497   91.2924   40.7031  20250611  11.5  4.0  C/2023 V3 (PANSTARRS)                                    MPEC 2024-A43
    CK23V040  2024 05 30.3902  1.121897  1.001156   50.8694   66.3269   67.1257  20250611  12.0  4.0  C/2023 V4 (Camarasa-Duszanowicz)                         MPEC 2024-UQ8
    CK23V050  2023 12 13.9056  0.846314  1.009423   56.9683   31.5156   73.5512  20250611  21.5  4.0  C/2023 V5 (Leonard)                                      MPEC 2024-GJ3
    PK23V060  2022 12  2.1908  4.366159  0.175548  192.5210  189.6549    3.9722  20250611  11.5  4.0  P/2023 V6 (PANSTARRS)                                    MPEC 2025-A40
    CK23X010  2023 10 17.9769  0.951057  0.993899  321.4682  136.9935  110.5884  20250611  13.5  3.2  C/2023 X1 (Leonard)                                      MPEC 2024-GJ3
    CK23X020  2025 12 28.1619  5.088809  1.000116   64.7634   66.3036   76.9829  20250611   8.5  3.2  C/2023 X2 (Lemmon)                                       MPC184411
    PK23X030  2024 04 22.1408  3.030711  0.286186   40.8662   62.0136    4.4833  20250611  15.5  4.0  P/2023 X3 (PANSTARRS)                                    MPEC 2024-A43
    CK23X040  2024 05 25.0485  3.658399  0.631264  100.5898   28.7694   11.5936  20250611  12.0  4.0  C/2023 X4 (Hogan)                                        MPC184411
    CK23X070  2025 05 15.2195  4.820338  1.002578  354.4001  119.1981   69.0886  20250611   9.0  4.0  C/2023 X7 (PANSTARRS)                                    MPEC 2024-DA2
    PK23Y010  2023 11 29.9166  2.080083  0.445360   51.4777   78.8560    6.3839  20250611  17.0  4.0  P/2023 Y1 (Gibbs)                                        MPEC 2024-JU4
    PK23Y020  2023 08 10.1033  2.277299  0.392275   16.9006   79.2289    6.9927  20250611  15.5  4.0  P/2023 Y2 (Gibbs)                                        MPEC 2025-A40
    CK24A010  2025 06 13.6928  3.875295  1.002419  353.3086  112.1355   94.4640  20250611   7.0  4.0  C/2024 A1 (ATLAS)                                        MPC184411
    CK24A020  2024 04 28.8156  1.879445  0.941797  295.4966   78.1654  119.1147  20250611  12.5  4.0  C/2024 A2 (ATLAS)                                        MPC182881
    CK24B010  2024 10  7.7183  1.633799  1.001020   66.2167   79.1885   70.9029  20250611  13.0  4.0  C/2024 B1 (Lemmon)                                       MPC184411
    CK24B020  2023 10  5.8763  4.078126  0.998001  130.3382  294.3853   99.8680  20250611  11.5  4.0  C/2024 B2 (Lemmon)                                       MPEC 2025-A40
    CK24C010  2024 08 31.0551  4.412873  0.582968   94.4881   83.8096   14.2269  20250611  11.5  4.0  C/2024 C1 (PANSTARRS)                                    MPC184412
